0 BREEZE-M DEB
1 38962U 12044CV  13282.57628608  .00200804  67382-5  44991-2 0  4323
2 38962 050.0645 331.7361 2169789 110.3670 274.3706 11.12550303 37509
0 BREEZE-M DEB
1 38962U 12044CV  13283.20499603  .00252507  85470-5  58837-2 0  4335
2 38962 050.0607 330.0722 2165436 111.5751 273.1155 11.12937187 37579
0 BREEZE-M DEB
1 38962U 12044CV  13283.56410124  .00248535  83967-5  58328-2 0  4346
2 38962 050.0571 329.1264 2164168 112.3170 272.0196 11.13109312 37614
0 BREEZE-M DEB
1 38962U 12044CV  13284.10274816  .00231831  77796-5  53722-2 0  4351
2 38962 050.0603 327.7278 2163874 113.5125 270.6427 11.13338243 37679
0 BREEZE-M DEB
1 38962U 12044CV  13285.53870100  .00193813  65358-5  44629-2 0  4373
2 38962 050.0608 323.9868 2161840 116.6281 267.1409 11.13855430 37836
0 BREEZE-M DEB
1 38962U 12044CV  13287.06357282  .00192808  65035-5  44593-2 0  4380
2 38962 050.0630 320.0022 2158737 119.9817 263.2618 11.14444238 38003
0 BREEZE-M DEB
1 38962U 12044CV  13287.51190869  .00189137  63945-5  43639-2 0  4396
2 38962 050.0671 318.8253 2158106 120.9004 262.1368 11.14607833 38056
0 BREEZE-M DEB
1 38962U 12044CV  13292.52845464  .00199192  66751-5  44531-2 0  4405
2 38962 050.0646 305.7169 2148976 131.7924 253.0605 11.16906904 38612
0 BREEZE-M DEB
1 38962U 12044CV  13292.79578733  .00206369  68988-5  46525-2 0  4411
2 38962 050.0645 305.0133 2147881 132.3601 248.0374 11.17023993 38647
0 BREEZE-M DEB
1 38962U 12044CV  13294.22679908  .00206143  68852-5  47103-2 0  4421
2 38962 050.0644 301.2651 2144192 135.3923 244.1259 11.17618687 38808
0 BREEZE-M DEB
1 38962U 12044CV  13295.21015125  .00210739  70236-5  47609-2 0  4433
2 38962 050.0661 298.6808 2142866 137.5779 241.2888 11.18038833 38917
0 BREEZE-M DEB
1 38962U 12044CV  13295.47825741  .00212712  70914-5  49382-2 0  4441
2 38962 050.0659 297.9831 2140622 138.0340 240.5226 11.18153525 38947
0 BREEZE-M DEB
1 38962U 12044CV  13296.19313158  .00208190  69388-5  48166-2 0  4453
2 38962 050.0652 296.1006 2139437 139.5744 238.5179 11.18446094 39021
